IRIDIUM 136             
1 42962U 17061H   24187.61466382  .00000307  00000+0  10270-3 0  9998
2 42962  86.3982 322.6164 0002060 102.0272 258.1155 14.34216908352844
